{
  "norad_id": 59956,
  "name": "STARLINK-11134 [DTC]",
  "history": [
    {
      "epoch": "2026-03-28T11:58:34.025952Z",
      "apogee_km": 360.53225815546375,
      "perigee_km": 359.04991397652793,
      "latitude_deg": 2.9536062706526688e-05,
      "longitude_deg": 152.72036973080657,
      "height_km": 360.7559990401515,
      "semi_major_axis_km": 6737.928086065996,
      "eccentricity": 0.00011,
      "inclination_deg": 53.1606,
      "raan_deg": 158.2807,
      "arg_perigee_deg": 93.9611,
      "mean_anomaly_deg": 266.1533,
      "mean_motion_rev_day": 15.69687518
    }
  ]
}