{"fetched_at":"2026-03-29T02:12:04Z","count":15717,"tles":[{"name":"STARLINK-11134 [DTC]","line1":"1 59956U 24107M   26087.49900493 -.00002709  00000+0 -17525-4 0  9992","line2":"2 59956  53.1606 158.2807 0001100  93.9611 266.1533 15.69687518105030","category":"Starlink"}]}